SARAH-1                 
1 52887U 22063A   22174.76914807  .00057931  00000+0  16917-1 0  9990
2 52887  98.3930 181.8659 0001741 114.3380 245.7128 14.43706701  1277
GLOBALSTAR FM15         
1 52888U 22064A   22189.30437080 -.00000128  00000+0  00000+0 0  9992
2 52888  51.9744 163.6102 0009649   3.9271 356.1695 13.37539472  2520
PVSAT                   
1 52894U 22065A   22188.81286082 -.00004054  00000+0 -88353-3 0  9993
2 52894  98.0214 339.5197 0009488 180.5430 179.5834 14.57453507  2405
KSLV-II DUMMY           
1 52895U 22065B   22189.56074896  .00000020  00000+0  13883-4 0  9999
2 52895  98.0234 340.2595 0007936 194.0522 166.0458 14.58136517  2523
KSLV-II R/B             
1 52896U 22065C   22188.75679614  .00000387  00000+0  85466-4 0  9991
2 52896  98.0727 339.6893 0007276  38.5539 321.6181 14.62513129  2403
STEP CUBE LAB-II        
1 52897U 22065D   22189.42596766  .00000279  00000+0  70027-4 0  9990
2 52897  98.0210 340.1215 0008713 200.4832 159.6031 14.58253620  1324
RANDEV                  
1 52898U 22065E   22189.58939220  .00000295  00000+0  73330-4 0  9992
2 52898  98.0227 340.2785 0008022 201.8539 292.2165 14.58322638  1067
SNUGLITE-II             
1 52899U 22065F   22189.37130997  .00000386  00000+0  92914-4 0  9994
2 52899  98.0230 340.0673 0007498 201.9533 222.4093 14.58344375   748
MIMAN                   
1 52900U 22065G   22188.67439144  .00001222  00000+0  27446-3 0  9992
2 52900  98.0230 339.3923 0007478 196.8267 163.2716 14.58175537   267
TIANXING-1              
1 52901U 22066A   22189.58324223  .00156681  11310-4  38983-3 0  9995
2 52901  96.7463 234.1421 0011218 266.1888 253.6288 15.95751693  2628
CMS-02 (GSAT 24)        
1 52903U 22067A   22187.39464419 -.00000265  00000+0  00000+0 0  9998
2 52903   0.0864 267.2542 0003709 238.8388  13.9204  1.00376705   172
MEASAT 3D               
1 52904U 22067B   22188.82929076 -.00000229  00000+0  00000+0 0  9993
2 52904   0.0818 281.9593 0001213 127.7779 266.0775  1.00273138   214
ARIANE 5 DEB [SYLDA]    
1 52905U 22067C   22188.54362187  .00012905  00000+0  46551-2 0  9994
2 52905   6.0559  59.5940 7272865 189.9915 137.6695  2.28549212   337
ARIANE 5 R/B            
1 52906U 22067D   22189.38540794  .00003164  00000+0  90791-3 0  9993
2 52906   6.2180  57.3051 7277665 192.4805 127.8388  2.28696302   343
YAOGAN-35 D             
1 52907U 22068A   22189.43847300  .00003800  00000+0  15907-3 0  9997
2 52907  34.9970 185.7410 0005717  34.0630 126.8133 15.23020623  2335
YAOGAN-35 E             
1 52908U 22068B   22189.43541619  .00003987  00000+0  16665-3 0  9990
2 52908  34.9955 185.7137 0008354  86.7354  73.9652 15.23031947  2308
YAOGAN-35 F             
1 52909U 22068C   22189.43858958 -.00086889  00000+0 -35977-2 0  9998
2 52909  34.9960 185.7349 0007506  35.6356 125.5266 15.23439472  2347
CZ-2D R/B               
1 52910U 22068D   22189.33885864  .00023199  00000+0  91288-3 0  9996
2 52910  34.9940 186.2956 0007776  43.4709 316.6618 15.24713358  2292
CZ-2D DEB               
1 52911U 22068E   22188.68161280  .00009673  00000+0  38043-3 0  9994
2 52911  34.9984 190.4087 0008478  43.7048 316.4332 15.24864766  2192
GAOFEN 12-3             
1 52912U 22069A   22189.57301068  .00000392  00000+0  58418-4 0  9993
2 52912  97.9844  77.1965 0001233 106.0644 254.0671 14.80226668  1624
CZ-4C R/B               
1 52913U 22069B   22188.72579645  .00001310  00000+0  86232-4 0  9994
2 52913  97.9718  76.7329 0073737  12.3191 347.9816 15.07298569  1518
CAPSTONE                
1 52914U 22070A   22184.14236111 -.00000375  00000+0  00000+0 0  9992
2 52914  39.0806 321.8334 8405410 344.4990 285.0037  1.02266752   396
LUNAR PHOTON            
1 52916U 22070C   22184.14236111 -.00000375  00000+0  00000+0 0  9994
2 52916  39.0806 321.8334 8405410 344.4990 285.0037  1.02266752   398
NACHOS-1                
1 52917U 22015D   22189.30558100  .00029510  00000+0  44369-3 0  9993
2 52917  51.6428 231.6819 0008260 350.5891   9.4944 15.54567702  1484
SES-22                  
1 52933U 22071A   22188.28085670  .00000118  00000+0  00000+0 0  9999
2 52933   0.0567 268.5930 0005942 266.8321  68.8066  1.00407723   102
FALCON 9 R/B            
1 52934U 22071B   22188.95896409  .00000959  00000+0  81270-3 0  9999
2 52934  16.5661  63.7180 7252261 184.8090 159.2950  2.28756657   177
DS-EO                   
1 52935U 22072A   22189.10758704  .00001866  00000+0  90845-4 0  9991
2 52935   9.9948  21.0480 0006684  58.2223  57.6554 14.99641157  1118
2022-072B               
1 52936U 22072B   22189.08494163  .00005065  00000+0  34039-3 0  9992
2 52936   9.9915  21.1925 0007511  57.9912 302.1015 14.99912109  1128
2022-072C               
1 52937U 22072C   22189.08328119  .00003722  00000+0  23304-3 0  9991
2 52937   9.9927  21.1909 0008627  68.7061 291.4081 15.00230277  1145
2022-072D               
1 52938U 22072D   22182.10135734  .00002312  00000+0  10000-3 0  9990
2 52938   9.8997  72.2486 0024259 193.5521 166.3691 15.06369760    92
2022-072E               
1 52939U 22072E   22189.06772355  .00003142  00000+0  16684-3 0  9995
2 52939   9.9523  20.9548 0036071  59.2251 301.1507 15.03369734  1141
RECURVE                 
1 52944U 22074A   22188.90416827  .00003051  00000+0  13832-3 0  9995
2 52944  44.9958  87.2670 0004032 295.8991  64.1516 15.23223855   859
2022-074B               
1 52945U 22074B   22188.90374467  .00004170  00000+0  18404-3 0  9992
2 52945  44.9943  87.2645 0003946 286.2674  73.7770 15.23345420   852
2022-074C               
1 52946U 22074C   22188.92824000  .00004650  00000+0  14125-3 0  9997
2 52946  44.9939  86.6019 0047197 241.4616 118.1461 15.34500301   866
SLINGSHOT1              
1 52947U 22074D   22189.16419233  .00006635  00000+0  28161-3 0  9993
2 52947  44.9847  85.8390 0004485 248.2687 111.7717 15.23839678   890
2022-074E               
1 52948U 22074E   22188.90022544  .00003835  00000+0  16550-3 0  9998
2 52948  44.9856  87.2408 0005243 234.7534 125.2837 15.24303315   855
2022-074F               
1 52949U 22074F   22189.55893110  .00008274  00000+0  35156-3 0  9991
2 52949  44.9919  83.7033 0004575 281.9311  78.1066 15.23516648   950
2022-074G               
1 52950U 22074G   22189.55907759  .00007910  00000+0  33702-3 0  9999
2 52950  45.0015  83.7013 0003749 284.0659  75.9861 15.23479753   953
2022-074H               
1 52951U 22074H   22189.55917855  .00009182  00000+0  38949-3 0  9999
2 52951  44.9860  83.7043 0003488 289.8432  70.2086 15.23456326   953
DUMMY CUBESAT           
1 52983U 22065H   22188.94992438 -.00012778  00000+0 -27785-2 0  9998
2 52983  98.0164 339.6500 0007786 187.9681 172.1361 14.57974091   100
2022-075A               
1 52984U 22075A   22188.66564441 -.00000035  00000+0  00000+0 0  9998
2 52984  64.8197   4.8089 0003472 271.0779 250.4009  2.12990873    04
2022-075B               
1 52985U 22075B   22189.57943736 -.00000036  00000+0  10000-3 0  9994
2 52985  64.7922   4.7827 0107352  94.8448  31.7745  2.08714417    27
